NORAD_CAT_ID,OBJECT_NAME,OBJECT_TYPE,EPOCH,MEAN_MOTION,ECCENTRICITY,INCLINATION,RA_OF_ASC_NODE,ARG_OF_PERICENTER,MEAN_ANOMALY,BSTAR,MEAN_MOTION_DOT,MEAN_MOTION_DDOT,TLE_LINE0,TLE_LINE1,TLE_LINE2,SEMIMAJOR_AXIS,PERIOD,APOGEE,PERIGEE,DECAYED
55676.0,STARLINK-5300,PAYLOAD,2023-09-24 09:33:18,15.69942161,0.0003518,70.0,255.2326,269.0908,90.9885,-4.8145e-05,-6.002e-05,0.0,0 STARLINK-5300,1 55676U 23021BA  23267.39813467 -.00006002  00000-0 -48145-4 0  9994,2 55676  70.0000 255.2326 0003518 269.0908  90.9885 15.69942161 34857,6737.199,91.723,361.435,356.694,0.0
55676.0,STARLINK-5300,PAYLOAD,2023-09-24 12:36:40,15.70163596,0.0004314,70.0004,254.8736,284.2104,75.8612,0.00038802,0.00047182,0.0,0 STARLINK-5300,1 55676U 23021BA  23267.52546736  .00047182  00000-0  38802-3 0  9991,2 55676  70.0004 254.8736 0004314 284.2104  75.8612 15.70163596 35189,6736.566,91.71,361.337,355.525,0.0
55676.0,STARLINK-5300,PAYLOAD,2023-09-25 03:54:25,15.69928369,0.0003565,69.9997,253.0837,268.7237,91.355,1.8971e-06,1.5e-07,0.0,0 STARLINK-5300,1 55676U 23021BA  23268.16279015  .00000015  00000-0  18971-5 0  9996,2 55676  69.9997 253.0837 0003565 268.7237  91.3550 15.69928369 34976,6737.239,91.724,361.506,356.702,0.0
55676.0,STARLINK-5300,PAYLOAD,2023-09-25 08:29:40,15.69934434,0.0003333,69.9989,252.5473,272.5248,87.5566,4.0179e-05,4.623e-05,0.0,0 STARLINK-5300,1 55676U 23021BA  23268.35393778  .00004623  00000-0  40179-4 0  9993,2 55676  69.9989 252.5473 0003333 272.5248  87.5566 15.69934434 35318,6737.222,91.724,361.332,356.841,0.0
55676.0,STARLINK-5300,PAYLOAD,2023-09-25 16:08:25,15.6993285,0.0003237,69.9999,251.6507,273.2916,86.791,3.7998e-05,4.36e-05,0.0,0 STARLINK-5300,1 55676U 23021BA  23268.67252165  .00004360  00000-0  37998-4 0  9995,2 55676  69.9999 251.6507 0003237 273.2916  86.7910 15.69932850 35369,6737.226,91.724,361.272,356.91,0.0
55676.0,STARLINK-5300,PAYLOAD,2023-09-26 01:18:57,15.69905478,0.0003484,69.9993,250.5764,267.4761,92.6036,-3.1423e-05,-3.986e-05,0.0,0 STARLINK-5300,1 55676U 23021BA  23269.05483340 -.00003986  00000-0 -31423-4 0  9991,2 55676  69.9993 250.5764 0003484 267.4761  92.6036 15.69905478 35117,6737.304,91.725,361.517,356.822,0.0
55676.0,STARLINK-5300,PAYLOAD,2023-09-26 08:57:42,15.6992075,0.0003042,70.001,249.6792,258.0538,102.0317,-4.4057e-07,-2.65e-06,0.0,0 STARLINK-5300,1 55676U 23021BA  23269.37341151 -.00000265  00000-0 -44057-6 0  9995,2 55676  70.0010 249.6792 0003042 258.0538 102.0317 15.69920750 35161,6737.261,91.724,361.175,357.076,0.0
55676.0,STARLINK-5300,PAYLOAD,2023-09-27 07:53:59,15.69919993,0.0003237,69.9991,246.9936,273.6645,86.4181,6.7183e-06,5.95e-06,0.0,0 STARLINK-5300,1 55676U 23021BA  23270.32916388  .00000595  00000-0  67183-5 0  9990,2 55676  69.9991 246.9936 0003237 273.6645  86.4181 15.69919993 35626,6737.263,91.724,361.309,356.947,0.0
55676.0,STARLINK-5300,PAYLOAD,2023-09-27 15:32:45,15.69922423,0.0003139,70.0006,246.0967,271.3784,88.7052,1.98e-05,2.169e-05,0.0,0 STARLINK-5300,1 55676U 23021BA  23270.64774802  .00002169  00000-0  19800-4 0  9999,2 55676  70.0006 246.0967 0003139 271.3784  88.7052 15.69922423 35366,6737.256,91.724,361.236,357.006,0.0
55676.0,STARLINK-5300,PAYLOAD,2023-09-28 08:22:01,15.6993132,0.0003372,70.0,244.1273,270.1344,89.9466,4.1008e-05,4.722e-05,0.0,0 STARLINK-5300,1 55676U 23021BA  23271.34862860  .00004722  00000-0  41008-4 0  9991,2 55676  70.0000 244.1273 0003372 270.1344  89.9466 15.69931320 35781,6737.23,91.724,361.367,356.824,0.0
55676.0,STARLINK-5300,PAYLOAD,2023-09-28 22:07:47,15.69931003,0.0002644,70.0016,242.5159,262.0515,98.038,3.6193e-05,4.142e-05,0.0,0 STARLINK-5300,1 55676U 23021BA  23271.92208003  .00004142  00000-0  36193-4 0  9993,2 55676  70.0016 242.5159 0002644 262.0515  98.0380 15.69931003 35878,6737.231,91.724,360.878,357.315,0.0
55676.0,STARLINK-5300,PAYLOAD,2023-09-29 10:21:48,15.69933662,0.0003185,70.0011,241.082,270.6408,89.4423,4.6301e-05,5.36e-05,0.0,0 STARLINK-5300,1 55676U 23021BA  23272.43181258  .00005360  00000-0  46301-4 0  9997,2 55676  70.0011 241.0820 0003185 270.6408  89.4423 15.69933662 35953,6737.224,91.724,361.235,356.943,0.0
55676.0,STARLINK-5300,PAYLOAD,2023-09-30 01:39:19,15.6993258,0.0002861,70.0013,239.2893,230.8697,129.2245,7.3793e-06,6.75e-06,0.0,0 STARLINK-5300,1 55676U 23021BA  23273.06897438  .00000675  00000-0  73793-5 0  9991,2 55676  70.0013 239.2893 0002861 230.8697 129.2245 15.69932580 35742,6737.227,91.724,361.019,357.164,0.0
55676.0,STARLINK-5300,PAYLOAD,2023-09-30 07:46:20,15.69912835,0.0003166,70.0011,238.5739,267.1189,92.9644,-2.2104e-05,-2.868e-05,0.0,0 STARLINK-5300,1 55676U 23021BA  23273.32385292 -.00002868  00000-0 -22104-4 0  9997,2 55676  70.0011 238.5739 0003166 267.1189  92.9644 15.69912835 35783,6737.283,91.725,361.281,357.015,0.0
55676.0,STARLINK-5300,PAYLOAD,2023-09-30 15:25:05,15.69928453,0.000356,69.9986,237.6778,266.5974,93.4814,2.5106e-05,2.808e-05,0.0,0 STARLINK-5300,1 55676U 23021BA  23273.64242967  .00002808  00000-0  25106-4 0  9990,2 55676  69.9986 237.6778 0003560 266.5974  93.4814 15.69928453 35831,6737.239,91.724,361.502,356.705,0.0
55676.0,STARLINK-5300,PAYLOAD,2023-10-01 06:42:36,15.69936555,0.0003484,69.9996,235.886,268.5546,91.525,4.5665e-05,5.284e-05,0.0,0 STARLINK-5300,1 55676U 23021BA  23274.27959350  .00005284  00000-0  45665-4 0  9994,2 55676  69.9996 235.8860 0003484 268.5546  91.5250 15.69936555 36247,6737.216,91.723,361.428,356.733,0.0
55676.0,STARLINK-5300,PAYLOAD,2023-10-02 01:03:39,15.69921707,0.0002933,70.0018,233.7357,262.3211,97.7652,2.9096e-05,3.287e-05,0.0,0 STARLINK-5300,1 55676U 23021BA  23275.04420234  .00003287  00000-0  29096-4 0  9995,2 55676  70.0018 233.7357 0002933 262.3211  97.7652 15.69921707 36058,6737.258,91.724,361.099,357.147,0.0
55676.0,STARLINK-5300,PAYLOAD,2023-10-02 07:10:33,15.70181751,0.0004537,70.0017,233.0199,271.7961,88.2715,0.0010296,0.0012685,0.0,0 STARLINK-5300,1 55676U 23021BA  23275.29900369  .00126850  00000-0  10296-2 0  9996,2 55676  70.0017 233.0199 0004537 271.7961  88.2715 15.70181751 36090,6736.514,91.709,361.435,355.323,0.0
55676.0,STARLINK-5300,PAYLOAD,2023-10-03 07:39:11,15.69070288,0.0003459,70.0006,230.1565,256.616,103.465,-0.0024858,-0.00279371,0.0,0 STARLINK-5300,1 55676U 23021BA  23276.31887897 -.00279371  00000-0 -24858-2 0  9998,2 55676  70.0006 230.1565 0003459 256.6160 103.4650 15.69070288 36265,6739.695,91.774,363.891,359.229,0.0
55676.0,STARLINK-5300,PAYLOAD,2023-10-03 22:00:00,15.67422561,0.0003448,70.0016,228.4802,263.363,230.3663,-0.0094098,-0.00929823,0.0,0 STARLINK-5300,1 55676U 23021BA  23276.91667824 -.00929823  00000-0 -94098-2 0  9997,2 55676  70.0016 228.4802 0003448 263.3630 230.3663 15.67422561 36352,6744.417,91.871,368.608,363.957,0.0
55676.0,STARLINK-5300,PAYLOAD,2023-10-04 14:00:01,15.66097152,0.0003492,70.0008,226.6147,263.6035,29.1924,-0.0098711,-0.00924835,0.0,0 STARLINK-5300,1 55676U 23021BA  23277.58334491 -.00924835  00000-0 -98711-2 0  9996,2 55676  70.0008 226.6147 0003492 263.6035  29.1924 15.66097152  6024,6748.222,91.948,372.444,367.731,0.0
55676.0,STARLINK-5300,PAYLOAD,2023-10-04 22:00:01,15.65466031,0.0003646,70.0009,225.6834,261.5989,109.5981,-0.010238,-0.00934303,0.0,0 STARLINK-5300,1 55676U 23021BA  23277.91668981 -.00934303  00000-0 -10238-1 0  9995,2 55676  70.0009 225.6834 0003646 261.5989 109.5981 15.65466031 36511,6750.036,91.985,374.362,369.44,0.0
55676.0,STARLINK-5300,PAYLOAD,2023-10-05 14:00:01,15.64136831,0.0003362,70.0009,223.8239,264.6194,260.8841,-0.010584,-0.00917478,0.0,0 STARLINK-5300,1 55676U 23021BA  23278.58334491 -.00917478  00000-0 -10584-1 0  9993,2 55676  70.0009 223.8239 0003362 264.6194 260.8841 15.64136831  6061,6753.859,92.064,377.995,373.454,0.0
55676.0,STARLINK-5300,PAYLOAD,2023-10-05 22:00:00,15.63507169,0.0003489,70.001,222.8951,261.4368,340.0571,-0.010997,-0.0092877,0.0,0 STARLINK-5300,1 55676U 23021BA  23278.91667824 -.00928770  00000-0 -10997-1 0  9994,2 55676  70.0010 222.8951 0003489 261.4368 340.0571 15.63507169  5853,6755.673,92.101,379.895,375.18,0.0
55676.0,STARLINK-5300,PAYLOAD,2023-10-06 06:00:00,15.62821054,0.0003585,70.0006,221.9674,267.5785,49.1551,-0.010718,-0.0088516,0.0,0 STARLINK-5300,1 55676U 23021BA  23279.25001157 -.00885160  00000-0 -10718-1 0  9999,2 55676  70.0006 221.9674 0003585 267.5785  49.1551 15.62821054 36712,6757.65,92.141,381.937,377.092,0.0
55676.0,STARLINK-5300,PAYLOAD,2023-10-06 14:00:01,15.62175603,0.0003589,70.0003,221.0404,264.3955,126.842,-0.011348,-0.00911313,0.0,0 STARLINK-5300,1 55676U 23021BA  23279.58335648 -.00911313  00000-0 -11348-1 0  9990,2 55676  70.0003 221.0404 0003589 264.3955 126.8420 15.62175603  5962,6759.511,92.179,383.802,378.95,0.0
55676.0,STARLINK-5300,PAYLOAD,2023-10-06 22:00:01,15.61548727,0.0003464,70.0005,220.1144,263.8867,200.9922,-0.011888,-0.00929794,0.0,0 STARLINK-5300,1 55676U 23021BA  23279.91668981 -.00929794  00000-0 -11888-1 0  9997,2 55676  70.0005 220.1144 0003464 263.8867 200.9922 15.61548727 36823,6761.32,92.216,385.527,380.843,0.0
55676.0,STARLINK-5300,PAYLOAD,2023-10-07 14:00:01,15.60212956,0.0003388,70.0003,218.2653,264.3739,345.4276,-0.012124,-0.00903081,0.0,0 STARLINK-5300,1 55676U 23021BA  23280.58334491 -.00903081  00000-0 -12124-1 0  9993,2 55676  70.0003 218.2653 0003388 264.3739 345.4276 15.60212956  6020,6765.178,92.295,389.335,384.751,0.0
55676.0,STARLINK-5300,PAYLOAD,2023-10-07 22:00:00,15.59603625,0.0003586,70.0005,217.3423,262.5239,58.5668,-0.013065,-0.00946422,0.0,0 STARLINK-5300,1 55676U 23021BA  23280.91667824 -.00946422  00000-0 -13065-1 0  9990,2 55676  70.0005 217.3423 0003586 262.5239  58.5668 15.59603625  5922,6766.94,92.331,391.232,386.379,0.0
55676.0,STARLINK-5300,PAYLOAD,2023-10-08 06:00:00,15.58901854,0.0003511,70.0,216.4198,269.7919,121.8482,-0.012289,-0.00873424,0.0,0 STARLINK-5300,1 55676U 23021BA  23281.25001157 -.00873424  00000-0 -12289-1 0  9997,2 55676  70.0000 216.4198 0003511 269.7919 121.8482 15.58901854 37037,6768.971,92.373,393.213,388.459,0.0
